{
  "type": "FeatureCollection",
  "features": [
    {
      "type": "Feature",
      "properties": {},
      "geometry": {
        "coordinates": [
          [
            [-9.666607813963253, 43.56823929703614],
            [-8.736449177325497, 40.22923898637428],
            [-9.713439579008629, 38.93990023955793],
            [-8.912057207151918, 36.97704064153373],
            [-5.461418180073068, 36.0362257061293],
            [-3.188701479873636, 36.62958379959496],
            [-0.6219851107511545, 36.809118394422356],
            [10.464617214868547, 37.568545463603385],
            [15.861161035446106, 36.52524538531237],
            [22.69661504220342, 36.109233792644886],
            [23.584425659139747, 36.41320373639189],
            [26.77370664636755, 36.21794646336565],
            [29.05384189140496, 35.475069428860905],
            [34.08951725106171, 34.18132054507081],
            [34.849302913581255, 35.84764532689803],
            [27.694802341857333, 35.92020593808833],
            [25.648130698205165, 37.34133859213421],
            [25.740057864425808, 39.51300214029779],
            [26.17526898997229, 40.17468993125951],
            [26.43196744121351, 40.64086426049077],
            [26.73168695155732, 41.00912441737482],
            [26.775017737905078, 41.138475329802255],
            [26.83500361214704, 41.245462359909624],
            [26.670901458037246, 41.3975622807084],
            [27.036513437975955, 41.46745782083062],
            [26.943580911741694, 41.61700301075405],
            [26.738950018251835, 41.69228659057407],
            [26.724773015264745, 41.79037819709612],
            [26.757717493638644, 41.880496835376],
            [26.889535332668522, 41.906148507308174],
            [27.041563410887964, 42.00822635170631],
            [27.535278638843558, 41.858923344486826],
            [28.136790836974864, 41.99672420116822],
            [28.328350807701995, 42.34659795834166],
            [28.458754070941126, 42.527898837246426],
            [28.64232840698115, 42.735970915883584],
            [29.900564022489217, 45.27797414900486],
            [27.42818136815319, 44.600205376112],
            [24.904820649952235, 43.96758452942801],
            [20.816648038608975, 43.27424571493547],
            [20.868080737621803, 43.24526791482711],
            [20.89701832388506, 43.20262757998265],
            [20.861136893972926, 43.19757262439651],
            [20.84961305174572, 43.17942815608204],
            [20.95312711759373, 43.13279899625712],
            [21.007711169051362, 43.14367995366801],
            [21.054100586635386, 43.11556542946395],
            [21.077355161597715, 43.13740480052934],
            [21.105094825369523, 43.137486497422145],
            [21.115774970403997, 43.12186316162272],
            [21.152331541525406, 43.10631188578644],
            [21.154431841757624, 43.081329743207384],
            [21.154266491485046, 43.06725798927215],
            [21.163956841560413, 43.035771855527244],
            [21.17737428506858, 43.010651520935106],
            [21.20130101590339, 43.030133052868706],
            [21.229459230038568, 43.01835079607619],
            [21.248310352008758, 42.943786511117736],
            [21.273389431273536, 42.90373584533583],
            [21.343989852630756, 42.904874080604245],
            [21.38659906111367, 42.87498270490011],
            [21.445283512812008, 42.87166985091679],
            [21.423424961707916, 42.76222386544572],
            [21.51968267803446, 42.732290220644586],
            [21.555582178914328, 42.73975626540037],
            [21.590189709410772, 42.736282679889854],
            [21.60505296115177, 42.700731822908324],
            [21.643101534899575, 42.70358059444468],
            [21.6622902812125, 42.67263514077105],
            [21.753042119612303, 42.70363780506912],
            [21.791018787231916, 42.67640782486353],
            [21.755864922599358, 42.55672880344356],
            [21.704104792157917, 42.51187983312262],
            [21.652344661716477, 42.467030862801685],
            [21.643687552839715, 42.44164557682063],
            [21.656557744868298, 42.39123215761512],
            [21.62400792470882, 42.37243883245394],
            [21.58340025704068, 42.37176258912911],
            [21.53357607078307, 42.34664177919744],
            [21.600787773793805, 42.25777448169005],
            [21.52000847340934, 42.235224469395675],
            [21.510026396821452, 42.26276009543379],
            [21.453129303473393, 42.272977335796256],
            [21.436426712916358, 42.23117378243505],
            [21.393532006013015, 42.23657415982504],
            [21.365294527844917, 42.21223886375098],
            [21.327369314498217, 42.16876341004429],
            [21.331520273435146, 42.109708345964336],
            [21.270337319788897, 42.08463015408993],
            [21.213560669036603, 42.09495032572927],
            [21.192617495831747, 42.15201547881712],
            [21.119703670507036, 42.200775114135524],
            [21.031744490958054, 42.14891064626967],
            [20.928387522737268, 42.11434093694007],
            [20.806610884083156, 42.07280905755159],
            [20.772032880552672, 42.047230036909625],
            [20.761979880394904, 42.00469983079749],
            [20.773483482737788, 41.96219924500161],
            [20.78170549099967, 41.91450440274575],
            [20.73285379720008, 41.863389926268866],
            [20.711765546465415, 41.860970275878465],
            [20.685493259698518, 41.85353729314299],
            [20.672401704465216, 41.86906904549059],
            [20.654343432357877, 41.871455145982175],
            [20.637124655963262, 41.85953508906118],
            [20.611509864152904, 41.8565596888984],
            [20.589729980164222, 41.88013735022561],
            [20.574199140138944, 41.91533488932318],
            [20.590705022870967, 41.93012285833902],
            [20.613111258187367, 41.93963607124776],
            [20.619776303778753, 41.95511231530959],
            [20.619610184847687, 41.973472675841876],
            [20.59560920734996, 42.00872277572923],
            [20.50733688065791, 42.225652302676735],
            [20.376600436920775, 42.29604742767985],
            [20.238013471657812, 42.3254289324577],
            [20.17715474656623, 42.47799180031973],
            [20.07658832410175, 42.54263594791941],
            [20.08301925590498, 42.57918358109952],
            [20.067548018116373, 42.604981975882],
            [20.080555690944337, 42.63283024917218],
            [20.102795588355242, 42.65528927539849],
            [20.066413582841896, 42.67885664950001],
            [20.01301918706643, 42.706567298512795],
            [20.01152731718645, 42.731573220301094],
            [20.016788492587594, 42.758566929041834],
            [20.047848052958532, 42.77995908123434],
            [20.095492857788564, 42.78245038588072],
            [20.135439771021378, 42.76493460137325],
            [20.15663762729133, 42.77045633269046],
            [20.194672985915012, 42.75364014717082],
            [20.22884627216511, 42.75710672990472],
            [20.256303634964787, 42.7775848261859],
            [20.260864252190647, 42.79453799232745],
            [20.25110926559651, 42.81036277080164],
            [20.257155274149028, 42.81627727709787],
            [20.269833838625686, 42.81970072062613],
            [20.274171333422117, 42.825382594674025],
            [20.28122431140224, 42.83149773678656],
            [20.292515461926257, 42.82637637329218],
            [20.295809663375167, 42.836546578867726],
            [20.305491901488466, 42.83688368854887],
            [20.315872704215337, 42.83716381780951],
            [20.320692083362303, 42.82891585273726],
            [20.32951776362662, 42.835148562511435],
            [20.341391369799666, 42.83590598093154],
            [20.36308890629539, 42.83592638928968],
            [20.40711309547339, 42.85021749442309],
            [20.44324175932985, 42.8354585451336],
            [20.488829429547167, 42.86919332672612],
            [20.535024870384717, 42.884052084448356],
            [20.483015932807987, 42.9212339229745],
            [20.497341980751116, 42.963691429934386],
            [20.53105798746764, 42.980613452204025],
            [20.547191220394595, 42.965904314133496],
            [20.559944488306478, 42.98882678470042],
            [20.575073484123237, 43.01296817595671],
            [20.60716178085142, 43.02496297715868],
            [20.631997091272964, 43.01192735758751],
            [20.641440604976914, 43.030490706696],
            [20.661762597335525, 43.04115026487965],
            [20.66426999544641, 43.05907708182635],
            [20.652420595282805, 43.073060912836866],
            [20.68341724410498, 43.09107107541031],
            [20.6905809152222, 43.110326534049555],
            [20.65017108110618, 43.14991525491271],
            [20.604900801001293, 43.16912479318097],
            [20.588323334168024, 43.209363464815084],
            [20.68331644393047, 43.21688464890936],
            [20.7214498530466, 43.25016228494594],
            [20.78284322688596, 43.25077473769841],
            [20.787712874212794, 43.26573962181038],
            [20.99034855104851, 43.284172213625055],
            [23.043198960280186, 43.64144609667338],
            [24.903484417357678, 43.965717075315126],
            [27.42387839954391, 44.59108949163251],
            [29.937978829069515, 45.28651475338165],
            [29.918330902845067, 45.26997336635445],
            [29.41802499963525, 45.579541165536554],
            [28.78612568574932, 45.40719691308608],
            [28.331164571007406, 45.61394218485596],
            [28.330409306521993, 45.892477701942916],
            [28.28841029584952, 46.19044315360961],
            [28.432414435995568, 46.520722179316664],
            [28.382646967344677, 46.84525759822218],
            [28.17782073357387, 47.08477891183584],
            [27.516907125679076, 47.75470550335433],
            [27.166190542993704, 48.25936783310185],
            [26.77318996046752, 48.37180176989479],
            [26.372330821312644, 48.27237811160519],
            [25.125646557110162, 47.884938623129486],
            [24.421257669139294, 47.9981548095852],
            [23.570202123176877, 48.036587089966744],
            [23.1865974241865, 48.134274288383956],
            [22.743727810867412, 48.16226580451794],
            [22.16292855276577, 48.44187602174227],
            [23.26102864018223, 50.15955902895632],
            [24.253194212765656, 50.493791598575626],
            [23.658628167584226, 51.75500153428382],
            [23.717420727382002, 52.08159331734288],
            [23.291031941905338, 52.38360117113692],
            [23.97653700777643, 52.788135328638845],
            [23.88822260130457, 53.26603418211394],
            [23.610657574801508, 53.9827475175085],
            [23.720165527377453, 53.88528718815172],
            [23.882084875329568, 53.90209154014665],
            [24.169047253630566, 53.944796065325406],
            [24.35653280766691, 53.881033089375556],
            [24.654081472406403, 53.934618267556175],
            [24.887058845329598, 54.015720092855666],
            [24.886846151915293, 54.128979932263704],
            [25.0621945670704, 54.12232763110113],
            [25.21134405096384, 54.16787500348506],
            [25.330015477537557, 54.24369448644502],
            [25.488004914129824, 54.287265807327444],
            [25.501542000904305, 54.23320621907986],
            [25.49932939229315, 54.14239686623209],
            [25.612398369113112, 54.11746704653335],
            [25.813064854736773, 54.15253785530241],
            [25.766683511207745, 54.3134865081749],
            [25.57716097314796, 54.344281993341895],
            [25.72310365846777, 54.54223516413781],
            [25.76177238013933, 54.56878328407443],
            [25.749732331757258, 54.676138609559914],
            [25.755555583062126, 54.79947672064746],
            [25.885809222639978, 54.91839028866163],
            [26.072679333783576, 54.947140902388284],
            [26.240154305190778, 55.00792884060324],
            [26.2552331826601, 55.10494397625253],
            [26.523960905652054, 55.12101689406926],
            [26.706362062881908, 55.153963575400155],
            [26.849519676842952, 55.268993283537064],
            [26.849140034277703, 55.31635486562473],
            [26.703651932059977, 55.3503222940826],
            [26.467521934681397, 55.349094172862706],
            [26.598199914545262, 55.39919737930615],
            [26.556279249322557, 55.50719236504415],
            [26.648987358442444, 55.569641511441795],
            [26.651468210290183, 55.64760433033659],
            [26.83715156009289, 55.68136871988127],
            [26.956283106325248, 55.80800555480829],
            [27.141249488511143, 55.82497746718451],
            [27.304029360754303, 55.77762190205752],
            [27.401997319800756, 55.793514572129666],
            [27.615929083304167, 55.76982791991537],
            [27.670932996119955, 55.90022650039167],
            [27.756472392822545, 55.95146251709719],
            [27.891669921077686, 56.03276438118891],
            [27.966623441021433, 56.09413674319483],
            [28.00350150197521, 56.1131077172074],
            [28.10855760569362, 56.130836053920845],
            [28.187275325394516, 56.173482523073815],
            [28.204532933356987, 56.23224296389963],
            [28.2653475595147, 56.279923955036864],
            [28.20743217384484, 56.401799011036246],
            [28.168360638242312, 56.572344941963465],
            [27.957012971004175, 56.7367300788907],
            [27.994874574493583, 56.8213993569823],
            [27.889820248366554, 56.88600807308057],
            [27.668691288802965, 56.856874940722506],
            [27.686882507819853, 56.90567641691652],
            [27.740952240831447, 56.921814949439394],
            [27.774315405276035, 57.007162607428555],
            [27.72252129275588, 57.00603372568375],
            [27.75083219275391, 57.04943179432701],
            [27.755274689657867, 57.074789390969755],
            [27.77394640959521, 57.084216419097494],
            [27.75971439762235, 57.09689494171293],
            [27.763436346191632, 57.128142191309635],
            [27.818800672501567, 57.13744645014067],
            [27.83284441833844, 57.19549468970309],
            [27.872657710597153, 57.24592012367273],
            [27.87432763629157, 57.29554090836308],
            [27.6886594746532, 57.39016343880117],
            [27.611867835166713, 57.41592295250149],
            [27.52757125068694, 57.4296011312393],
            [27.54029560562396, 57.45664511013736],
            [27.561241273539416, 57.48288418330135],
            [27.572468122409283, 57.511534005688624],
            [27.564242344284587, 57.537772856790355],
            [27.52570139409789, 57.54312935960408],
            [27.47366464701497, 57.540460515197026],
            [27.417536481033448, 57.52708178034937],
            [27.367377785723548, 57.53906900156572],
            [27.359145352993572, 57.522939143517206],
            [27.338125423530784, 57.55091814205913],
            [27.326845924152124, 57.578664197379496],
            [27.352605818887533, 57.593735909437555],
            [27.390347601471607, 57.60079202143597],
            [27.396297096550917, 57.60845625702747],
            [27.406730565930594, 57.613316976462556],
            [27.399794164255326, 57.622052352175004],
            [27.400328897570198, 57.636791939939286],
            [27.382742429229275, 57.64666198634066],
            [27.398500670937665, 57.67942551720185],
            [27.433723280244973, 57.71059509124266],
            [27.487631021400425, 57.70380724439961],
            [27.518339343290382, 57.70441026741496],
            [27.53706739324302, 57.71619674380706],
            [27.54830388350674, 57.732269962860094],
            [27.526597074222085, 57.75392361925617],
            [27.50938922313516, 57.771383106663365],
            [27.51618601283345, 57.78487827859852],
            [27.53900645376812, 57.796011452473735],
            [27.54843034109964, 57.81078239840998],
            [27.56450719876375, 57.826263101753256],
            [27.597398515453797, 57.83130958737419],
            [27.630241243908543, 57.83598651571285],
            [27.708621081877343, 57.83792104212154],
            [27.734932299210428, 57.82743328258918],
            [27.777194881830034, 57.82968418868032],
            [27.823851984527586, 57.850795300740074],
            [27.82322638029375, 57.89429734182511],
            [27.762972559543208, 57.90038017712555],
            [27.720857450442082, 57.91908638020327],
            [27.690312325781132, 57.92754711902238],
            [27.677810542748652, 57.94818966164381],
            [27.707196581607285, 57.99616250827429],
            [27.626709347781507, 58.03630629536144],
            [27.64309513099601, 58.09463997689973],
            [27.558250446939404, 58.16689236549627],
            [27.503399975408453, 58.25694171065047],
            [27.565356228507085, 58.38368314370106],
            [27.49868799124158, 58.49243874181806],
            [27.408226346831896, 58.77722524613354],
            [28.41722158383934, 59.50352513624746],
            [27.707655338060015, 59.769821855135746],
            [27.742429186084458, 60.38836560838716],
            [28.1179205819845, 60.77281547489578],
            [28.86522070497851, 61.1162571434986],
            [30.09610703592098, 61.793828516964716],
            [30.906104028169594, 62.290314919179195],
            [31.329045572387727, 62.530406347306325],
            [31.468703509135807, 62.67814179965396],
            [31.60836144588389, 62.82587725200159],
            [31.665446692059234, 62.899101378885874],
            [31.72253193823458, 62.972325505770165],
            [31.711017848217935, 63.08077625787779],
            [31.44214633556963, 63.21668873221145],
            [31.40942980473951, 63.325106158201194],
            [31.221111483669297, 63.40114849226621],
            [30.959654954285494, 63.504782113526716],
            [30.65032114222565, 63.57089230451521],
            [30.13408702192006, 63.84824159200919],
            [30.35023648671549, 63.8988187727916],
            [30.417059833036113, 63.917699867923446],
            [30.473584564811787, 64.00246934680447],
            [30.701740440364603, 64.14459170191088],
            [30.70580625340755, 64.23145580473083],
            [30.656120989109052, 64.25541428123339],
            [30.623622767479134, 64.29735001164374],
            [30.66174834697473, 64.32881697689609],
            [30.632129949360994, 64.35904916162727],
            [30.530343261888852, 64.3654025872057],
            [30.50246869260159, 64.40457994899432],
            [30.44297444911114, 64.42081362935804],
            [30.395516535697148, 64.43630161351051],
            [30.281675706845697, 64.4568745943024],
            [30.233173508936694, 64.47595956356497],
            [30.200128759065727, 64.49730250680284],
            [30.18086776147687, 64.58249014222213],
            [30.15038304892937, 64.63657746975943],
            [30.164195179306258, 64.68233939448722],
            [30.29129647901879, 64.72559288247297],
            [30.22164528327389, 64.79893586252656],
            [30.190560979993855, 64.83686379163174],
            [30.238788736826702, 64.85912376301651],
            [30.221312505330374, 64.87808813231945],
            [30.13811831329213, 64.89232225100102],
            [29.958305237280136, 64.88845234785028],
            [29.87514469222806, 64.89568358860885],
            [29.849959685631035, 64.93170964232277],
            [29.791616483873444, 64.97273991268635],
            [29.764198780124538, 65.02197496649654],
            [29.76190369013049, 65.08836277384422],
            [29.782757020535385, 65.14979222486704],
            [29.880258828704175, 65.17853439708588],
            [29.95072585479209, 65.1746861623836],
            [30.004305342803832, 65.19273600818045],
            [30.050160607683505, 65.2034277528156],
            [29.979534134807665, 65.23705642340062],
            [30.048263342268804, 65.2951227132689],
            [29.93575402367551, 65.33067421905201],
            [29.874274688082828, 65.32054623863814],
            [29.7857336032151, 65.32985805999293],
            [29.759436887466578, 65.35330058060808],
            [29.8250074906401, 65.39616742648846],
            [29.89057221177334, 65.42772858341434],
            [29.87867863559802, 65.51504710854422],
            [29.907424279324935, 65.59296106978329],
            [30.02894007328949, 65.65482818463116],
            [29.87603230317263, 65.72706289339612],
            [30.049736008257696, 65.76574253630642],
            [30.158655730293503, 65.78239425309766],
            [30.292698554804332, 65.75526949913552],
            [30.153459976386983, 66.09106051818652],
            [30.039039200533797, 66.26115436097109],
            [29.871664190239898, 66.35166553663124],
            [29.81020087731725, 66.44004164303121],
            [29.451083568439472, 66.78288869949807],
            [29.266866933213183, 66.94140709662403],
            [29.375410268873672, 67.09259674455505],
            [29.90967484713829, 67.45788817865386],
            [30.257436149866844, 67.69685724942379],
            [29.778860769155635, 68.01915762068938],
            [28.927240132677827, 68.30349783180853],
            [28.723175159068305, 68.52115421704201],
            [28.906697781281878, 68.76258304823392],
            [29.073690565781426, 68.92532013336208],
            [28.823245375396493, 69.00189294480926],
            [29.287119698145084, 69.03692445305796],
            [29.58901846261714, 69.29273627390685],
            [30.43369886988282, 69.51238403758582],
            [30.517921865587255, 69.61659535336477],
            [31.028449666088278, 69.52383882136505],
            [31.235741343523046, 69.68924122713476],
            [31.083370295861272, 69.8434304368759],
            [29.304083711660347, 70.07009615697764],
            [28.326135389298134, 70.19345361377515],
            [27.2822586049801, 70.11102041546806],
            [19.855270343805415, 69.13203687952192],
            [17.687763390351172, 68.38602111815621],
            [16.73851556259859, 67.9322414365757],
            [16.079134010260262, 67.47865580445972],
            [15.247779628464865, 66.41496120292024],
            [14.640022512803956, 66.20123371971518],
            [14.728648915946076, 65.87637331660835],
            [14.645287133338776, 65.36730679857577],
            [14.014181512742262, 64.85029541166722],
            [13.798119810338605, 64.64298976044496],
            [14.226862399723835, 64.47841963067705],
            [14.330890434208674, 64.25420892641372],
            [14.046686913653556, 64.11831334076464],
            [13.191222833954175, 64.20015078092334],
            [12.567413813502927, 63.9161554808618],
            [11.8877411113229, 63.31596586399089],
            [12.148452089919433, 62.264835219120485],
            [12.082758361104695, 61.65641534776103],
            [12.607799407111735, 61.35385275931638],
            [12.574372374827842, 61.15147385258653],
            [12.0147632916877, 60.99130325280464],
            [12.43433463856742, 60.43519547088901],
            [12.293986677836404, 60.12588725695321],
            [12.055784432536026, 59.96747642552944],
            [11.854001520919592, 59.72050684939479],
            [11.811915503659886, 59.15041820203494],
            [11.334708513088424, 59.20844512736324],
            [9.979135028102196, 57.77549539962281],
            [0.39999850669924175, 49.94705644929873],
            [-6.062082409340501, 49.765994636068555],
            [-5.073273201354029, 53.270993491029984],
            [-5.317466555200508, 54.59091432086022],
            [-6.377767579311204, 55.509532543698974],
            [-10.107543936255812, 56.22432947002521],
            [-10.633462496374094, 53.08980977586391],
            [-10.55895031778352, 50.93047242129598],
            [-4.762435477140599, 48.11000163448699],
            [-1.9322968325670473, 44.03282812245773],
            [-5.040647188786785, 43.958117493217166],
            [-7.643333741308755, 44.40160382315207],
            [-9.666607813963253, 43.56823929703614]
          ]
        ],
        "type": "Polygon"
      }
    }
  ]
}
